SCD 1                   
1 22490U 93009B   26170.45153556  .00000315  00000+0  35137-4 0  9999
2 22490  24.9676 193.5957 0041988 161.6065 309.1420 14.46119450761443
TECHSAT 1B (GO-32)      
1 25397U 98043D   26170.59313746  .00000028  00000+0  32334-4 0  9992
2 25397  99.0068 163.4125 0001179 158.0468 202.0760 14.24428772451673
SCD 2                   
1 25504U 98060A   26170.39400902  .00000344  00000+0  45162-4 0  9994
2 25504  24.9958  58.5474 0016878 145.9714  14.9585 14.45526591460643
DLR-TUBSAT              
1 25757U 99029B   26170.56680821  .00000044  00000+0  22764-4 0  9999
2 25757  98.6695 166.1492 0013897 347.9099  12.1760 14.52427292433598
TERRA                   
1 25994U 99068A   26170.57029881  .00000271  00000+0  64191-4 0  9991
2 25994  97.9455 220.0221 0001772 181.5510 339.0816 14.61104662409955
MAROC-TUBSAT            
1 27004U 01056D   26170.40368377 -.00000038  00000+0  10254-4 0  9996
2 27004  99.8084 347.3050 0020393 135.7462 246.4760 13.70262508226496
AQUA                    
1 27424U 02022A   26170.66421478  .00000576  00000+0  12426-3 0  9994
2 27424  98.4277 139.9965 0001008  54.6608  57.0914 14.62161192283639
SHIYAN-1 (SY-1)         
1 28220U 04012A   26170.46700785  .00011339  00000+0  34917-3 0  9997
2 28220  97.8687 248.6837 0005377  24.9892 335.1609 15.33808861211447
AURA                    
1 28376U 04026A   26170.58801186  .00000582  00000+0  12749-3 0  9991
2 28376  98.3417 127.0612 0001188  76.9401 283.1932 14.61332106166563
IRS-P5 (CARTOSAT-1)     
1 28649U 05017A   26170.56130881  .00000994  00000+0  10570-3 0  9997
2 28649  97.5306 193.5182 0002532  77.0281 283.1221 14.91054422144175
SINAH 1                 
1 28893U 05043D   26170.58271039  .00000226  00000+0  52387-4 0  9991
2 28893  98.2865 304.9187 0013133 268.5158  91.4539 14.64158912100876
RESURS-DK 1             
1 29228U 06021A   26170.48117437  .00001551  00000+0  93164-4 0  9991
2 29228  69.9330 333.6151 0006880 290.7888  69.2541 15.13225616102924
ARIRANG-2 (KOMPSAT-2)   
1 29268U 06031A   26170.62118132 -.00000047  00000+0 -31764-6 0  9996
2 29268  97.8306 354.9495 0015877  67.7686  22.7382 14.64660454 61831
LAPAN-TUBSAT            
1 29709U 07001A   26170.61118230  .00000336  00000+0  45072-4 0  9996
2 29709  98.1339 169.8901 0012107 171.5017 188.6405 14.85950903 51517
HAIYANG-1B              
1 31113U 07010A   26170.59201378  .00000065  00000+0  40663-4 0  9991
2 31113  98.3495 152.3440 0013180 188.9814 171.1136 14.31027414   984
COSMO-SKYMED 1          
1 31598U 07023A   26170.60797968  .00002247  00000+0  19994-3 0  9995
2 31598  97.8850   2.4838 0001481  98.0883 262.0506 14.97109815 30155
TERRASAR-X              
1 31698U 07026A   26170.49711592  .00000145  00000+0  10104-4 0  9995
2 31698  97.4452 178.1696 0001572  90.3933 269.7482 15.19151206 53579
WORLDVIEW-1 (WV-1)      
1 32060U 07041A   26170.58971259  .00004705  00000+0  19552-3 0  9995
2 32060  97.3882 290.2989 0002013  13.3798 346.7492 15.24288482 43248
YAOGAN-3                
1 32289U 07055A   26170.61079765  .00001045  00000+0  11196-3 0  9998
2 32289  97.8145 200.4647 0001754  80.4390 279.7027 14.90786318  6236
COSMO-SKYMED 2          
1 32376U 07059A   26170.59142433  .00000261  00000+0  39337-4 0  9996
2 32376  97.8886 354.1544 0001356  87.9939 272.1430 14.82156601  2369
RADARSAT-2              
1 32382U 07061A   26170.62673527  .00000141  00000+0  71623-4 0  9994
2 32382  98.5774 177.5247 0001303  83.8166 276.3164 14.29982697966302
CARTOSAT-2A             
1 32783U 08021A   26170.61698067  .00000525  00000+0  77280-4 0  9992
2 32783  97.7625 219.2431 0013235 101.7798 258.4900 14.79241495979166
HUANJING 1A (HJ-1A)     
1 33320U 08041A   26170.59371547  .00001257  00000+0  15668-3 0  9994
2 33320  97.6684 156.3395 0020190 127.2458 233.0603 14.83991859958765
HUANJING 1B (HJ-1B)     
1 33321U 08041B   26170.63133986 -.00000053  00000+0 -13975-6 0  9990
2 33321  97.6521 159.5397 0036243 172.8930 187.2806 14.83317810958775
GEOEYE 1                
1 33331U 08042A   26170.54286049  .00000319  00000+0  68893-4 0  9991
2 33331  98.1236 244.4443 0005323  63.9665 296.2086 14.64727497950498
THEOS                   
1 33396U 08049A   26170.64618095  .00000306  00000+0  16324-3 0  9997
2 33396  98.5564 227.8505 0001201  80.1063 280.0250 14.20134350918316
COSMO-SKYMED 3          
1 33412U 08054A   26170.59996997  .00002884  00000+0  19684-3 0  9991
2 33412  97.8280  29.2098 0013971 257.2662 102.7003 15.06965911957300
YAOGAN-4                
1 33446U 08061A   26170.52829743  .00000762  00000+0  99682-4 0  9993
2 33446  97.9307 104.0213 0015654  65.5289 294.7556 14.83203795946014
GOSAT (IBUKI)           
1 33492U 09002A   26170.25200199  .00000862  00000+0  16052-3 0  9998
2 33492  98.0895 281.3076 0001540  84.9380 275.2001 14.67541949931764
DEIMOS-1                
1 35681U 09041A   26170.56031466  .00000620  00000+0  98724-4 0  9995
2 35681  97.7407 327.6845 0001762 128.1780 231.9589 14.75240373907231
